STARLINK-4144           
1 53257U 22086R   26068.61394590 -.00000503  00000+0 -13508-4 0  9999
2 53257  53.2167 194.4603 0001162  98.4624 261.6500 15.08843490201058
DISKSAT D               
1 67221U 25305C   26068.55257179  .00011599  00000+0  76841-3 0  9999
2 67221  45.0023 251.6339 0003712 319.2749  40.7848 15.07416577 12277
